start=new Date('2021-09-07T00:00:00.000Z').valueOf();
sats=[{"NORAD_CAT_ID":"45659","ELEMENT_SET_NO":"999","TLE_LINE2":"2 45659  53.0540 252.5420 0000857  66.6551 293.4528 15.06389040 70744","ARG_OF_PERICENTER":"66.6551","COUNTRY_CODE":"US","APOAPSIS":"547.841","TLE_LINE1":"1 45659U 20035C   21249.41593434  .00000851  00000-0  76031-4 0  9995","EPHEMERIS_TYPE":"0","FILE":"3109699","MEAN_ANOMALY":"293.4528","BSTAR":"0.00007603100000","OBJECT_ID":"2020-035C","SITE":"AFETR","CLASSIFICATION_TYPE":"U","PERIOD":"95.593","REF_FRAME":"TEME","MEAN_MOTION_DDOT":"0.0000000000000","RCS_SIZE":"LARGE","TIME_SYSTEM":"UTC","OBJECT_TYPE":"PAYLOAD","GP_ID":"184194818","ECCENTRICITY":"0.00008570","MEAN_ELEMENT_THEORY":"SGP4","INCLINATION":"53.0540","OBJECT_NAME":"STARLINK-1442","PERIAPSIS":"546.654","CENTER_NAME":"EARTH","MEAN_MOTION_DOT":"0.00000851","DECAY_DATE":null,"MEAN_MOTION":"15.06389040","RA_OF_ASC_NODE":"252.5420","REV_AT_EPOCH":"7074","SEMIMAJOR_AXIS":"6925.382","EPOCH":"2021-09-06T09:58:56.726976","LAUNCH_DATE":"2020-06-04"},{"DECAY_DATE":null,"SEMIMAJOR_AXIS":"6925.327","EPOCH":"2021-09-06T11:39:44.956800","MEAN_MOTION":"15.06407080","RA_OF_ASC_NODE":"252.2343","REV_AT_EPOCH":"7076","LAUNCH_DATE":"2020-06-04","GP_ID":"184195068","ECCENTRICITY":"0.00010770","INCLINATION":"53.0553","MEAN_ELEMENT_THEORY":"SGP4","OBJECT_NAME":"STARLINK-1443","PERIAPSIS":"546.446","CENTER_NAME":"EARTH","MEAN_MOTION_DOT":"0.00000968","FILE":"3109699","OBJECT_ID":"2020-035D","SITE":"AFETR","MEAN_ANOMALY":"298.2059","BSTAR":"0.00008386200000","REF_FRAME":"TEME","CLASSIFICATION_TYPE":"U","PERIOD":"95.592","OBJECT_TYPE":"PAYLOAD","TIME_SYSTEM":"UTC","MEAN_MOTION_DDOT":"0.0000000000000","RCS_SIZE":"LARGE","NORAD_CAT_ID":"45660","ELEMENT_SET_NO":"999","TLE_LINE2":"2 45660  53.0553 252.2343 0001077  61.9039 298.2059 15.06407080 70764","ARG_OF_PERICENTER":"61.9039","APOAPSIS":"547.938","COUNTRY_CODE":"US","TLE_LINE1":"1 45660U 20035D   21249.48593700  .00000968  00000-0  83862-4 0  9999","EPHEMERIS_TYPE":"0"},{"LAUNCH_DATE":"2020-06-04","MEAN_MOTION":"15.06402314","REV_AT_EPOCH":"7079","RA_OF_ASC_NODE":"251.2594","SEMIMAJOR_AXIS":"6925.341","EPOCH":"2021-09-06T16:52:56.908416","DECAY_DATE":null,"MEAN_MOTION_DOT":"0.00000614","OBJECT_NAME":"STARLINK-1444","PERIAPSIS":"546.801","CENTER_NAME":"EARTH","MEAN_ELEMENT_THEORY":"SGP4","INCLINATION":"53.0544","GP_ID":"184222994","ECCENTRICITY":"0.00005850","RCS_SIZE":"LARGE","MEAN_MOTION_DDOT":"0.0000000000000","OBJECT_TYPE":"PAYLOAD","TIME_SYSTEM":"UTC","PERIOD":"95.592","CLASSIFICATION_TYPE":"U","REF_FRAME":"TEME","MEAN_ANOMALY":"312.1412","BSTAR":"0.00006006700000","OBJECT_ID":"2020-035E","SITE":"AFETR","FILE":"3109923","TLE_LINE1":"1 45661U 20035E   21249.70343644  .00000614  00000-0  60067-4 0  9995","EPHEMERIS_TYPE":"0","COUNTRY_CODE":"US","APOAPSIS":"547.612","ELEMENT_SET_NO":"999","TLE_LINE2":"2 45661  53.0544 251.2594 0000585  47.9627 312.1412 15.06402314 70799","ARG_OF_PERICENTER":"47.9627","NORAD_CAT_ID":"45661"},{"TIME_SYSTEM":"UTC","OBJECT_TYPE":"PAYLOAD","RCS_SIZE":"LARGE","MEAN_MOTION_DDOT":"0.0000000000000","REF_FRAME":"TEME","CLASSIFICATION_TYPE":"U","PERIOD":"95.592","SITE":"AFETR","OBJECT_ID":"2020-035F","BSTAR":"-0.00000266180000","MEAN_ANOMALY":"305.2315","FILE":"3109699","EPHEMERIS_TYPE":"0","TLE_LINE1":"1 45662U 20035F   21249.51911952 -.00000321  00000-0 -26618-5 0  9990","APOAPSIS":"547.811","COUNTRY_CODE":"US","ARG_OF_PERICENTER":"54.8755","TLE_LINE2":"2 45662  53.0545 252.0844 0000870  54.8755 305.2315 15.06401773 70764","ELEMENT_SET_NO":"999","NORAD_CAT_ID":"45662","LAUNCH_DATE":"2020-06-04","EPOCH":"2021-09-06T12:27:31.926528","SEMIMAJOR_AXIS":"6925.343","RA_OF_ASC_NODE":"252.0844","REV_AT_EPOCH":"7076","MEAN_MOTION":"15.06401773","DECAY_DATE":null,"MEAN_MOTION_DOT":"-0.00000321","CENTER_NAME":"EARTH","PERIAPSIS":"546.606","OBJECT_NAME":"STARLINK-1445","INCLINATION":"53.0545","MEAN_ELEMENT_THEORY":"SGP4","ECCENTRICITY":"0.00008700","GP_ID":"184195571"},{"NORAD_CAT_ID":"45663","ELEMENT_SET_NO":"999","TLE_LINE2":"2 45663  53.0532 251.1759 0001179  69.3876 290.7240 15.06397467 70796","ARG_OF_PERICENTER":"69.3876","COUNTRY_CODE":"US","APOAPSIS":"548.038","TLE_LINE1":"1 45663U 20035G   21249.72184947 -.00000717  00000-0 -29228-4 0  9998","EPHEMERIS_TYPE":"0","FILE":"3109923","MEAN_ANOMALY":"290.7240","BSTAR":"-0.00002922800000","OBJECT_ID":"2020-035G","SITE":"AFETR","PERIOD":"95.592","CLASSIFICATION_TYPE":"U","REF_FRAME":"TEME","MEAN_MOTION_DDOT":"0.0000000000000","RCS_SIZE":"LARGE","OBJECT_TYPE":"PAYLOAD","TIME_SYSTEM":"UTC","GP_ID":"184223996","ECCENTRICITY":"0.00011790","MEAN_ELEMENT_THEORY":"SGP4","INCLINATION":"53.0532","OBJECT_NAME":"STARLINK-1446","CENTER_NAME":"EARTH","PERIAPSIS":"546.405","MEAN_MOTION_DOT":"-0.00000717","DECAY_DATE":null,"MEAN_MOTION":"15.06397467","RA_OF_ASC_NODE":"251.1759","REV_AT_EPOCH":"7079","SEMIMAJOR_AXIS":"6925.356","EPOCH":"2021-09-06T17:19:27.794208","LAUNCH_DATE":"2020-06-04"},{"LAUNCH_DATE":"2020-06-04","EPOCH":"2021-09-06T11:45:05.548320","SEMIMAJOR_AXIS":"6925.388","REV_AT_EPOCH":"7075","RA_OF_ASC_NODE":"252.2174","MEAN_MOTION":"15.06387226","DECAY_DATE":null,"MEAN_MOTION_DOT":"0.00000595","PERIAPSIS":"546.427","CENTER_NAME":"EARTH","OBJECT_NAME":"STARLINK-1448","INCLINATION":"53.0528","MEAN_ELEMENT_THEORY":"SGP4","ECCENTRICITY":"0.00011930","GP_ID":"184194569","TIME_SYSTEM":"UTC","OBJECT_TYPE":"PAYLOAD","RCS_SIZE":"LARGE","MEAN_MOTION_DDOT":"0.0000000000000","REF_FRAME":"TEME","CLASSIFICATION_TYPE":"U","PERIOD":"95.593","SITE":"AFETR","OBJECT_ID":"2020-035J","BSTAR":"0.00005886400000","MEAN_ANOMALY":"296.7122","FILE":"3109699","TLE_LINE1":"1 45665U 20035J   21249.48964755  .00000595  00000-0  58864-4 0  9996","EPHEMERIS_TYPE":"0","APOAPSIS":"548.079","COUNTRY_CODE":"US","TLE_LINE2":"2 45665  53.0528 252.2174 0001193  63.3989 296.7122 15.06387226 70754","ARG_OF_PERICENTER":"63.3989","ELEMENT_SET_NO":"999","NORAD_CAT_ID":"45665"},{"LAUNCH_DATE":"2020-06-04","DECAY_DATE":null,"SEMIMAJOR_AXIS":"6925.350","EPOCH":"2021-09-06T16:40:56.858592","MEAN_MOTION":"15.06399558","RA_OF_ASC_NODE":"251.2893","REV_AT_EPOCH":"7078","OBJECT_NAME":"STARLINK-1449","CENTER_NAME":"EARTH","PERIAPSIS":"546.322","MEAN_MOTION_DOT":"-0.00000222","GP_ID":"184223494","ECCENTRICITY":"0.00012890","INCLINATION":"53.0542","MEAN_ELEMENT_THEORY":"SGP4","REF_FRAME":"TEME","CLASSIFICATION_TYPE":"U","PERIOD":"95.592","TIME_SYSTEM":"UTC","OBJECT_TYPE":"PAYLOAD","MEAN_MOTION_DDOT":"0.0000000000000","RCS_SIZE":"LARGE","FILE":"3109923","OBJECT_ID":"2020-035K","SITE":"AFETR","MEAN_ANOMALY":"285.0849","BSTAR":"0.00000396520000","APOAPSIS":"548.108","COUNTRY_CODE":"US","EPHEMERIS_TYPE":"0","TLE_LINE1":"1 45666U 20035K   21249.69510253 -.00000222  00000-0  39652-5 0  9993","NORAD_CAT_ID":"45666","ELEMENT_SET_NO":"999","TLE_LINE2":"2 45666  53.0542 251.2893 0001289  75.0282 285.0849 15.06399558 70781","ARG_OF_PERICENTER":"75.0282"},{"NORAD_CAT_ID":"45667","ELEMENT_SET_NO":"999","TLE_LINE2":"2 45667  53.0517 252.2016 0001165  72.5881 287.5235 15.06398758 70756","ARG_OF_PERICENTER":"72.5881","APOAPSIS":"548.024","COUNTRY_CODE":"US","TLE_LINE1":"1 45667U 20035L   21249.49331675 -.00000642  00000-0 -24247-4 0  9991","EPHEMERIS_TYPE":"0","FILE":"3109699","OBJECT_ID":"2020-035L","SITE":"AFETR","MEAN_ANOMALY":"287.5235","BSTAR":"-0.00002424700000","REF_FRAME":"TEME","PERIOD":"95.592","CLASSIFICATION_TYPE":"U","TIME_SYSTEM":"UTC","OBJECT_TYPE":"PAYLOAD","MEAN_MOTION_DDOT":"0.0000000000000","RCS_SIZE":"LARGE","GP_ID":"184196071","ECCENTRICITY":"0.00011650","INCLINATION":"53.0517","MEAN_ELEMENT_THEORY":"SGP4","OBJECT_NAME":"STARLINK-1450","PERIAPSIS":"546.411","CENTER_NAME":"EARTH","MEAN_MOTION_DOT":"-0.00000642","DECAY_DATE":null,"SEMIMAJOR_AXIS":"6925.352","EPOCH":"2021-09-06T11:50:22.567200","MEAN_MOTION":"15.06398758","RA_OF_ASC_NODE":"252.2016","REV_AT_EPOCH":"7075","LAUNCH_DATE":"2020-06-04"},{"EPOCH":"2021-09-06T17:35:23.465472","SEMIMAJOR_AXIS":"6925.333","REV_AT_EPOCH":"7080","RA_OF_ASC_NODE":"251.1275","MEAN_MOTION":"15.06405206","DECAY_DATE":null,"LAUNCH_DATE":"2020-06-04","INCLINATION":"53.0546","MEAN_ELEMENT_THEORY":"SGP4","ECCENTRICITY":"0.00011130","GP_ID":"184224496","MEAN_MOTION_DOT":"0.00001092","CENTER_NAME":"EARTH","PERIAPSIS":"546.427","OBJECT_NAME":"STARLINK-1451","SITE":"AFETR","OBJECT_ID":"2020-035M","BSTAR":"0.00009214800000","MEAN_ANOMALY":"304.7223","FILE":"3109923","OBJECT_TYPE":"PAYLOAD","TIME_SYSTEM":"UTC","RCS_SIZE":"LARGE","MEAN_MOTION_DDOT":"0.0000000000000","REF_FRAME":"TEME","PERIOD":"95.592","CLASSIFICATION_TYPE":"U","TLE_LINE2":"2 45668  53.0546 251.1275 0001113  55.3870 304.7223 15.06405206 70806","ARG_OF_PERICENTER":"55.3870","ELEMENT_SET_NO":"999","NORAD_CAT_ID":"45668","EPHEMERIS_TYPE":"0","TLE_LINE1":"1 45668U 20035M   21249.73291048  .00001092  00000-0  92148-4 0  9991","APOAPSIS":"547.968","COUNTRY_CODE":"US"},{"CLASSIFICATION_TYPE":"U","PERIOD":"95.592","REF_FRAME":"TEME","MEAN_MOTION_DDOT":"0.0000000000000","RCS_SIZE":"LARGE","TIME_SYSTEM":"UTC","OBJECT_TYPE":"PAYLOAD","FILE":"3109923","BSTAR":"0.00006415800000","MEAN_ANOMALY":"289.7167","SITE":"AFETR","OBJECT_ID":"2020-035N","COUNTRY_CODE":"US","APOAPSIS":"547.965","TLE_LINE1":"1 45669U 20035N   21249.71079137  .00000675  00000-0  64158-4 0  9999","EPHEMERIS_TYPE":"0","NORAD_CAT_ID":"45669","ARG_OF_PERICENTER":"70.3942","TLE_LINE2":"2 45669  53.0534 251.2230 0001109  70.3942 289.7167 15.06405450 70796","ELEMENT_SET_NO":"999","LAUNCH_DATE":"2020-06-04","DECAY_DATE":null,"RA_OF_ASC_NODE":"251.2230","REV_AT_EPOCH":"7079","MEAN_MOTION":"15.06405450","EPOCH":"2021-09-06T17:03:32.374368","SEMIMAJOR_AXIS":"6925.332","PERIAPSIS":"546.429","CENTER_NAME":"EARTH","OBJECT_NAME":"STARLINK-1452","MEAN_MOTION_DOT":"0.00000675","ECCENTRICITY":"0.00011090","GP_ID":"184223244","MEAN_ELEMENT_THEORY":"SGP4","INCLINATION":"53.0534"}];
